CCSDS_OMM_VERS = 2.0
CREATION_DATE  = 
ORIGINATOR     = 

OBJECT_NAME    = ALOS-2
OBJECT_ID      = 2014-029A
CENTER_NAME    = EARTH
REF_FRAME      = TEME
TIME_SYSTEM    = UTC
MEAN_ELEMENT_THEORY = SGP/SGP4

EPOCH          = 2026-03-12T23:09:45.416736
MEAN_MOTION    = 14.79516988
ECCENTRICITY   = .0001512
INCLINATION    = 97.9187
RA_OF_ASC_NODE = 170.5144
ARG_OF_PERICENTER = 96.9485
MEAN_ANOMALY   = 263.1898

EPHEMERIS_TYPE = 0
CLASSIFICATION_TYPE = U
NORAD_CAT_ID   = 39766
ELEMENT_SET_NO = 999
REV_AT_EPOCH   = 63735
BSTAR          = .15566E-3
MEAN_MOTION_DOT = .1112E-4
MEAN_MOTION_DDOT = 0

CCSDS_OMM_VERS = 2.0
CREATION_DATE  = 
ORIGINATOR     = 

OBJECT_NAME    = YAOGAN-29
OBJECT_ID      = 2015-069A
CENTER_NAME    = EARTH
REF_FRAME      = TEME
TIME_SYSTEM    = UTC
MEAN_ELEMENT_THEORY = SGP/SGP4

EPOCH          = 2026-03-13T00:47:43.066176
MEAN_MOTION    = 14.82999560
ECCENTRICITY   = .0001655
INCLINATION    = 98.0145
RA_OF_ASC_NODE = 100.4716
ARG_OF_PERICENTER = 30.8872
MEAN_ANOMALY   = 329.2439

EPHEMERIS_TYPE = 0
CLASSIFICATION_TYPE = U
NORAD_CAT_ID   = 41038
ELEMENT_SET_NO = 999
REV_AT_EPOCH   = 55637
BSTAR          = .80414E-4
MEAN_MOTION_DOT = .599E-5
MEAN_MOTION_DDOT = 0

CCSDS_OMM_VERS = 2.0
CREATION_DATE  = 
ORIGINATOR     = 

OBJECT_NAME    = ASTRO-H (HITOMI)
OBJECT_ID      = 2016-012A
CENTER_NAME    = EARTH
REF_FRAME      = TEME
TIME_SYSTEM    = UTC
MEAN_ELEMENT_THEORY = SGP/SGP4

EPOCH          = 2026-03-12T22:32:27.927168
MEAN_MOTION    = 15.10031130
ECCENTRICITY   = .000973
INCLINATION    = 31.0006
RA_OF_ASC_NODE = 335.5784
ARG_OF_PERICENTER = 3.8567
MEAN_ANOMALY   = 356.2145

EPHEMERIS_TYPE = 0
CLASSIFICATION_TYPE = U
NORAD_CAT_ID   = 41337
ELEMENT_SET_NO = 999
REV_AT_EPOCH   = 55272
BSTAR          = .21388E-3
MEAN_MOTION_DOT = .3662E-4
MEAN_MOTION_DDOT = 0

CCSDS_OMM_VERS = 2.0
CREATION_DATE  = 
ORIGINATOR     = 

OBJECT_NAME    = HXMT (HUIYAN)
OBJECT_ID      = 2017-034A
CENTER_NAME    = EARTH
REF_FRAME      = TEME
TIME_SYSTEM    = UTC
MEAN_ELEMENT_THEORY = SGP/SGP4

EPOCH          = 2026-03-13T00:04:09.429024
MEAN_MOTION    = 15.17517246
ECCENTRICITY   = .0033225
INCLINATION    = 43.0161
RA_OF_ASC_NODE = 358.2530
ARG_OF_PERICENTER = 256.1397
MEAN_ANOMALY   = 103.5753

EPHEMERIS_TYPE = 0
CLASSIFICATION_TYPE = U
NORAD_CAT_ID   = 42758
ELEMENT_SET_NO = 999
REV_AT_EPOCH   = 48304
BSTAR          = .34893E-3
MEAN_MOTION_DOT = .699E-4
MEAN_MOTION_DDOT = 0

CCSDS_OMM_VERS = 2.0
CREATION_DATE  = 
ORIGINATOR     = 

OBJECT_NAME    = SAOCOM 1A
OBJECT_ID      = 2018-076A
CENTER_NAME    = EARTH
REF_FRAME      = TEME
TIME_SYSTEM    = UTC
MEAN_ELEMENT_THEORY = SGP/SGP4

EPOCH          = 2026-03-13T00:01:26.037120
MEAN_MOTION    = 14.82143687
ECCENTRICITY   = .0001426
INCLINATION    = 97.8898
RA_OF_ASC_NODE = 260.1264
ARG_OF_PERICENTER = 86.6450
MEAN_ANOMALY   = 273.4926

EPHEMERIS_TYPE = 0
CLASSIFICATION_TYPE = U
NORAD_CAT_ID   = 43641
ELEMENT_SET_NO = 999
REV_AT_EPOCH   = 40185
BSTAR          = .30941E-4
MEAN_MOTION_DOT = .194E-5
MEAN_MOTION_DDOT = 0

CCSDS_OMM_VERS = 2.0
CREATION_DATE  = 
ORIGINATOR     = 

OBJECT_NAME    = H-2A R/B
OBJECT_ID      = 2018-084L
CENTER_NAME    = EARTH
REF_FRAME      = TEME
TIME_SYSTEM    = UTC
MEAN_ELEMENT_THEORY = SGP/SGP4

EPOCH          = 2026-03-12T14:08:21.714144
MEAN_MOTION    = 15.41481901
ECCENTRICITY   = .002525
INCLINATION    = 98.8732
RA_OF_ASC_NODE = 289.5971
ARG_OF_PERICENTER = 15.4084
MEAN_ANOMALY   = 344.7921

EPHEMERIS_TYPE = 0
CLASSIFICATION_TYPE = U
NORAD_CAT_ID   = 43682
ELEMENT_SET_NO = 999
REV_AT_EPOCH   = 40622
BSTAR          = .50679E-3
MEAN_MOTION_DOT = .21397E-3
MEAN_MOTION_DDOT = 0

CCSDS_OMM_VERS = 2.0
CREATION_DATE  = 
ORIGINATOR     = 

OBJECT_NAME    = SAOCOM 1B
OBJECT_ID      = 2020-059A
CENTER_NAME    = EARTH
REF_FRAME      = TEME
TIME_SYSTEM    = UTC
MEAN_ELEMENT_THEORY = SGP/SGP4

EPOCH          = 2026-03-12T23:09:12.575232
MEAN_MOTION    = 14.82153462
ECCENTRICITY   = .000142
INCLINATION    = 97.8899
RA_OF_ASC_NODE = 259.1884
ARG_OF_PERICENTER = 85.0208
MEAN_ANOMALY   = 275.1167

EPHEMERIS_TYPE = 0
CLASSIFICATION_TYPE = U
NORAD_CAT_ID   = 46265
ELEMENT_SET_NO = 999
REV_AT_EPOCH   = 29923
BSTAR          = .11536E-3
MEAN_MOTION_DOT = .866E-5
MEAN_MOTION_DDOT = 0

CCSDS_OMM_VERS = 2.0
CREATION_DATE  = 
ORIGINATOR     = 

OBJECT_NAME    = CSS (TIANHE)
OBJECT_ID      = 2021-035A
CENTER_NAME    = EARTH
REF_FRAME      = TEME
TIME_SYSTEM    = UTC
MEAN_ELEMENT_THEORY = SGP/SGP4

EPOCH          = 2026-03-12T15:49:01.500960
MEAN_MOTION    = 15.60827652
ECCENTRICITY   = .0006713
INCLINATION    = 41.4661
RA_OF_ASC_NODE = 190.0925
ARG_OF_PERICENTER = 290.2953
MEAN_ANOMALY   = 69.7164

EPHEMERIS_TYPE = 0
CLASSIFICATION_TYPE = U
NORAD_CAT_ID   = 48274
ELEMENT_SET_NO = 999
REV_AT_EPOCH   = 27807
BSTAR          = .31305E-3
MEAN_MOTION_DOT = .26654E-3
MEAN_MOTION_DDOT = 0

CCSDS_OMM_VERS = 2.0
CREATION_DATE  = 
ORIGINATOR     = 

OBJECT_NAME    = COSMOS 2550
OBJECT_ID      = 2021-056A
CENTER_NAME    = EARTH
REF_FRAME      = TEME
TIME_SYSTEM    = UTC
MEAN_ELEMENT_THEORY = SGP/SGP4

EPOCH          = 2026-03-12T09:16:30.213120
MEAN_MOTION    = 15.33837293
ECCENTRICITY   = .0008377
INCLINATION    = 67.1461
RA_OF_ASC_NODE = 32.7743
ARG_OF_PERICENTER = 269.6455
MEAN_ANOMALY   = 90.3740

EPHEMERIS_TYPE = 0
CLASSIFICATION_TYPE = U
NORAD_CAT_ID   = 48865
ELEMENT_SET_NO = 999
REV_AT_EPOCH   = 26387
BSTAR          = .60433E-7
MEAN_MOTION_DOT = -.19E-5
MEAN_MOTION_DDOT = 0

CCSDS_OMM_VERS = 2.0
CREATION_DATE  = 
ORIGINATOR     = 

OBJECT_NAME    = CZ-2C R/B
OBJECT_ID      = 2022-058K
CENTER_NAME    = EARTH
REF_FRAME      = TEME
TIME_SYSTEM    = UTC
MEAN_ELEMENT_THEORY = SGP/SGP4

EPOCH          = 2026-03-12T23:36:42.799680
MEAN_MOTION    = 15.54484444
ECCENTRICITY   = .0042118
INCLINATION    = 50.1891
RA_OF_ASC_NODE = 301.3419
ARG_OF_PERICENTER = 214.7824
MEAN_ANOMALY   = 145.0391

EPHEMERIS_TYPE = 0
CLASSIFICATION_TYPE = U
NORAD_CAT_ID   = 52794
ELEMENT_SET_NO = 999
REV_AT_EPOCH   = 21064
BSTAR          = .52976E-3
MEAN_MOTION_DOT = .36653E-3
MEAN_MOTION_DDOT = 0

CCSDS_OMM_VERS = 2.0
CREATION_DATE  = 
ORIGINATOR     = 

OBJECT_NAME    = CZ-2C R/B
OBJECT_ID      = 2022-132E
CENTER_NAME    = EARTH
REF_FRAME      = TEME
TIME_SYSTEM    = UTC
MEAN_ELEMENT_THEORY = SGP/SGP4

EPOCH          = 2026-03-12T13:47:48.493248
MEAN_MOTION    = 15.62131197
ECCENTRICITY   = .0020438
INCLINATION    = 97.2966
RA_OF_ASC_NODE = 74.9796
ARG_OF_PERICENTER = 81.9771
MEAN_ANOMALY   = 278.3806

EPHEMERIS_TYPE = 0
CLASSIFICATION_TYPE = U
NORAD_CAT_ID   = 54039
ELEMENT_SET_NO = 999
REV_AT_EPOCH   = 19082
BSTAR          = .51672E-3
MEAN_MOTION_DOT = .45817E-3
MEAN_MOTION_DDOT = 0

CCSDS_OMM_VERS = 2.0
CREATION_DATE  = 
ORIGINATOR     = 

OBJECT_NAME    = GSLV R/B
OBJECT_ID      = 2022-138AN
CENTER_NAME    = EARTH
REF_FRAME      = TEME
TIME_SYSTEM    = UTC
MEAN_ELEMENT_THEORY = SGP/SGP4

EPOCH          = 2026-03-12T17:30:11.771424
MEAN_MOTION    = 14.96799800
ECCENTRICITY   = .0023383
INCLINATION    = 87.3879
RA_OF_ASC_NODE = 165.3456
ARG_OF_PERICENTER = 136.3077
MEAN_ANOMALY   = 224.0011

EPHEMERIS_TYPE = 0
CLASSIFICATION_TYPE = U
NORAD_CAT_ID   = 54149
ELEMENT_SET_NO = 999
REV_AT_EPOCH   = 18438
BSTAR          = .37509E-3
MEAN_MOTION_DOT = .4343E-4
MEAN_MOTION_DDOT = 0

